{
  "type": "FeatureCollection",
  "features": [
    {
      "type": "Feature",
      "properties": {
        "norad_id": 33860,
        "name": "IRIDIUM 33 DEB",
        "group": "iridium-33-debris",
        "lat": -85.8786641428865,
        "lon": -33.26994282319064,
        "alt_km": 677.3369830505035,
        "timestamp": "2025-12-10T18:57:00.450066+00:00",
        "meta_object_name": "IRIDIUM 33 DEB",
        "meta_object_id": "1997-051AD",
        "meta_epoch": "2025-12-10T09:47:56.154048",
        "meta_mean_motion": 14.67318543,
        "meta_eccentricity": 0.0007756,
        "meta_inclination": 86.3835,
        "meta_ra_of_asc_node": 28.2699,
        "meta_arg_of_pericenter": 6.0738,
        "meta_mean_anomaly": 53.1424,
        "meta_ephemeris_type": 0,
        "meta_classification_type": "U",
        "meta_norad_cat_id": 33860,
        "meta_element_set_no": 999,
        "meta_rev_at_epoch": 88688,
        "meta_bstar": 0.0017974,
        "meta_mean_motion_dot": 0.00010173,
        "meta_mean_motion_ddot": 0,
        "tle_line1": "1 33860U 97051AD  25344.40828882  .00010173  00000+0  17974-2 0  9991",
        "tle_line2": "2 33860  86.3835  28.2699 0007756   6.0738  53.1424 14.67318543886889"
      },
      "geometry": {
        "type": "Point",
        "coordinates": [
          -33.26994282319064,
          -85.8786641428865
        ]
      }
    },
    {
      "type": "Feature",
      "properties": {
        "norad_id": 33862,
        "name": "IRIDIUM 33 DEB",
        "group": "iridium-33-debris",
        "lat": -67.5368697763108,
        "lon": 29.653481339802834,
        "alt_km": 700.5429554897346,
        "timestamp": "2025-12-10T18:57:00.450077+00:00",
        "meta_object_name": "IRIDIUM 33 DEB",
        "meta_object_id": "1997-051AF",
        "meta_epoch": "2025-12-10T04:48:51.418368",
        "meta_mean_motion": 14.69405819,
        "meta_eccentricity": 0.0053669,
        "meta_inclination": 86.4089,
        "meta_ra_of_asc_node": 38.6496,
        "meta_arg_of_pericenter": 77.6795,
        "meta_mean_anomaly": 341.2532,
        "meta_ephemeris_type": 0,
        "meta_classification_type": "U",
        "meta_norad_cat_id": 33862,
        "meta_element_set_no": 999,
        "meta_rev_at_epoch": 88786,
        "meta_bstar": 0.0019581,
        "meta_mean_motion_dot": 0.00011873,
        "meta_mean_motion_ddot": 0,
        "tle_line1": "1 33862U 97051AF  25344.20059512  .00011873  00000+0  19581-2 0  9991",
        "tle_line2": "2 33862  86.4089  38.6496 0053669  77.6795 341.2532 14.69405819887869"
      },
      "geometry": {
        "type": "Point",
        "coordinates": [
          29.653481339802834,
          -67.5368697763108
        ]
      }
    },
    {
      "type": "Feature",
      "properties": {
        "norad_id": 33866,
        "name": "IRIDIUM 33 DEB",
        "group": "iridium-33-debris",
        "lat": -51.50624378249902,
        "lon": 89.19324823075772,
        "alt_km": 877.9349096002261,
        "timestamp": "2025-12-10T18:57:00.450089+00:00",
        "meta_object_name": "IRIDIUM 33 DEB",
        "meta_object_id": "1997-051AK",
        "meta_epoch": "2025-12-10T07:29:42.778752",
        "meta_mean_motion": 14.25261956,
        "meta_eccentricity": 0.0114289,
        "meta_inclination": 86.2999,
        "meta_ra_of_asc_node": 94.0625,
        "meta_arg_of_pericenter": 169.117,
        "meta_mean_anomaly": 211.0673,
        "meta_ephemeris_type": 0,
        "meta_classification_type": "U",
        "meta_norad_cat_id": 33866,
        "meta_element_set_no": 999,
        "meta_rev_at_epoch": 86776,
        "meta_bstar": 0.0011075,
        "meta_mean_motion_dot": 2.807e-05,
        "meta_mean_motion_ddot": 0,
        "tle_line1": "1 33866U 97051AK  25344.31230068  .00002807  00000+0  11075-2 0  9991",
        "tle_line2": "2 33866  86.2999  94.0625 0114289 169.1170 211.0673 14.25261956867762"
      },
      "geometry": {
        "type": "Point",
        "coordinates": [
          89.19324823075772,
          -51.50624378249902
        ]
      }
    },
    {
      "type": "Feature",
      "properties": {
        "norad_id": 33867,
        "name": "IRIDIUM 33 DEB",
        "group": "iridium-33-debris",
        "lat": 75.43329958818029,
        "lon": 5.280764737362884,
        "alt_km": 360.6820658647157,
        "timestamp": "2025-12-10T18:57:00.450099+00:00",
        "meta_object_name": "IRIDIUM 33 DEB",
        "meta_object_id": "1997-051AL",
        "meta_epoch": "2025-12-10T10:56:50.693856",
        "meta_mean_motion": 15.63354376,
        "meta_eccentricity": 0.0013167,
        "meta_inclination": 86.364,
        "meta_ra_of_asc_node": 351.2878,
        "meta_arg_of_pericenter": 91.1844,
        "meta_mean_anomaly": 269.0932,
        "meta_ephemeris_type": 0,
        "meta_classification_type": "U",
        "meta_norad_cat_id": 33867,
        "meta_element_set_no": 999,
        "meta_rev_at_epoch": 89475,
        "meta_bstar": 0.0092111,
        "meta_mean_motion_dot": 0.00931891,
        "meta_mean_motion_ddot": 0,
        "tle_line1": "1 33867U 97051AL  25344.45614229  .00931891  00000+0  92111-2 0  9996",
        "tle_line2": "2 33867  86.3640 351.2878 0013167  91.1844 269.0932 15.63354376894752"
      },
      "geometry": {
        "type": "Point",
        "coordinates": [
          5.280764737362884,
          75.43329958818029
        ]
      }
    },
    {
      "type": "Feature",
      "properties": {
        "norad_id": 33870,
        "name": "IRIDIUM 33 DEB",
        "group": "iridium-33-debris",
        "lat": -81.55957272798074,
        "lon": -95.6078788530319,
        "alt_km": 743.5535607260854,
        "timestamp": "2025-12-10T18:57:00.450110+00:00",
        "meta_object_name": "IRIDIUM 33 DEB",
        "meta_object_id": "1997-051AP",
        "meta_epoch": "2025-12-10T06:24:18.912384",
        "meta_mean_motion": 14.45830234,
        "meta_eccentricity": 0.0021205,
        "meta_inclination": 86.3744,
        "meta_ra_of_asc_node": 59.3205,
        "meta_arg_of_pericenter": 186.1349,
        "meta_mean_anomaly": 237.0541,
        "meta_ephemeris_type": 0,
        "meta_classification_type": "U",
        "meta_norad_cat_id": 33870,
        "meta_element_set_no": 999,
        "meta_rev_at_epoch": 88101,
        "meta_bstar": 0.0012181,
        "meta_mean_motion_dot": 4.353e-05,
        "meta_mean_motion_ddot": 0,
        "tle_line1": "1 33870U 97051AP  25344.26688556  .00004353  00000+0  12181-2 0  9996",
        "tle_line2": "2 33870  86.3744  59.3205 0021205 186.1349 237.0541 14.45830234881015"
      },
      "geometry": {
        "type": "Point",
        "coordinates": [
          -95.6078788530319,
          -81.55957272798074
        ]
      }
    },
    {
      "type": "Feature",
      "properties": {
        "norad_id": 33881,
        "name": "IRIDIUM 33 DEB",
        "group": "iridium-33-debris",
        "lat": 54.54299022057223,
        "lon": 112.68056332009274,
        "alt_km": 724.8685092018768,
        "timestamp": "2025-12-10T18:57:00.450121+00:00",
        "meta_object_name": "IRIDIUM 33 DEB",
        "meta_object_id": "1997-051BA",
        "meta_epoch": "2025-12-10T09:03:19.667808",
        "meta_mean_motion": 14.56501004,
        "meta_eccentricity": 0.0061446,
        "meta_inclination": 86.3864,
        "meta_ra_of_asc_node": 107.7688,
        "meta_arg_of_pericenter": 182.2836,
        "meta_mean_anomaly": 232.7021,
        "meta_ephemeris_type": 0,
        "meta_classification_type": "U",
        "meta_norad_cat_id": 33881,
        "meta_element_set_no": 999,
        "meta_rev_at_epoch": 87466,
        "meta_bstar": 0.0031972,
        "meta_mean_motion_dot": 0.00014624,
        "meta_mean_motion_ddot": 0,
        "tle_line1": "1 33881U 97051BA  25344.37731097  .00014624  00000+0  31972-2 0  9990",
        "tle_line2": "2 33881  86.3864 107.7688 0061446 182.2836 232.7021 14.56501004874662"
      },
      "geometry": {
        "type": "Point",
        "coordinates": [
          112.68056332009274,
          54.54299022057223
        ]
      }
    },
    {
      "type": "Feature",
      "properties": {
        "norad_id": 33884,
        "name": "IRIDIUM 33 DEB",
        "group": "iridium-33-debris",
        "lat": -35.74519896450725,
        "lon": -166.68233209365474,
        "alt_km": 647.0862426220137,
        "timestamp": "2025-12-10T18:57:00.450132+00:00",
        "meta_object_name": "IRIDIUM 33 DEB",
        "meta_object_id": "1997-051BD",
        "meta_epoch": "2025-12-10T08:19:18.691104",
        "meta_mean_motion": 14.77350899,
        "meta_eccentricity": 0.0009941,
        "meta_inclination": 86.3695,
        "meta_ra_of_asc_node": 10.8982,
        "meta_arg_of_pericenter": 332.9342,
        "meta_mean_anomaly": 49.1777,
        "meta_ephemeris_type": 0,
        "meta_classification_type": "U",
        "meta_norad_cat_id": 33884,
        "meta_element_set_no": 999,
        "meta_rev_at_epoch": 88812,
        "meta_bstar": 0.0020635,
        "meta_mean_motion_dot": 0.00014711,
        "meta_mean_motion_ddot": 0,
        "tle_line1": "1 33884U 97051BD  25344.34674411  .00014711  00000+0  20635-2 0  9997",
        "tle_line2": "2 33884  86.3695  10.8982 0009941 332.9342  49.1777 14.77350899888127"
      },
      "geometry": {
        "type": "Point",
        "coordinates": [
          -166.68233209365474,
          -35.74519896450725
        ]
      }
    }
  ]
}